OBJECT_NAME,OBJECT_ID,EPOCH,MEAN_MOTION,ECCENTRICITY,INCLINATION,RA_OF_ASC_NODE,ARG_OF_PERICENTER,MEAN_ANOMALY,EPHEMERIS_TYPE,CLASSIFICATION_TYPE,NORAD_CAT_ID,ELEMENT_SET_NO,REV_AT_EPOCH,BSTAR,MEAN_MOTION_DOT,MEAN_MOTION_DDOT
BIRKELAND,2023-001G,2026-05-19T03:54:18.494784,15.39520418,.0006437,97.3354,207.0685,194.4838,165.6225,0,U,55015,999,18788,.16672E-3,.6467E-4,0
ION SCV-008,2023-001AU,2026-05-19T05:37:38.591616,15.28181313,.0016463,97.5697,235.0797,113.6192,246.6778,0,U,55051,999,18691,.15379E-3,.4161E-4,0
ION SCV-007,2023-001BD,2026-05-19T03:29:36.885984,14.77523657,.0013713,97.9021,202.7345,72.2882,287.9824,0,U,55060,999,18196,.43601E-4,.261E-5,0
HUYGENS,2023-001CN,2026-05-19T03:54:25.523424,15.39519678,.0009865,97.3260,206.3359,177.4656,182.6641,0,U,55093,999,18790,.16691E-3,.6481E-4,0
SHARJAHSAT-1,2023-001CZ,2026-05-19T03:53:29.851584,15.47914811,.0005787,97.3184,207.5491,190.4583,169.6548,0,U,55104,999,18800,.24928E-3,.12908E-3,0
HORUS 1,2023-025A,2026-05-19T04:28:04.940256,15.23260045,.0000976,97.3466,214.3892,134.2846,225.8471,0,U,55690,999,17963,.1572E-3,.3655E-4,0
HORUS 2,2023-032A,2026-05-19T03:45:02.947968,15.23442050,.0003029,97.3537,215.1369,134.2001,225.9486,0,U,55844,999,17706,.17279E-3,.4047E-4,0
GLOBAL-19,2023-041B,2026-05-18T16:31:10.646688,15.38385850,.0005213,42.0031,13.9916,146.4713,213.6457,0,U,55982,999,17738,.24026E-3,.9047E-4,0
BRO-9,2023-054H,2026-05-18T12:46:57.743328,15.83205814,.00079869,97.2976,54.8061,120.5153,239.6905,0,U,56185,999,17437,.70887493E-3,.154493E-2,0
ION SCV-010,2023-054Q,2026-05-19T04:16:02.547264,15.25916165,.0011477,97.3814,29.0494,313.3472,46.6809,0,U,56192,999,17177,.11501E-3,.2881E-4,0
TELEOS-2,2023-057C,2026-05-19T03:54:18.256320,14.96420192,.0000726,9.9890,55.4999,261.7331,98.2800,0,U,56310,999,16844,.16209E-3,.2577E-4,0
SNIPE 4,2023-072B,2026-05-19T03:17:02.594976,15.41113277,.0006989,97.5272,344.2448,77.4569,282.7458,0,U,56744,999,16563,.3484E-3,.14353E-3,0
SNIPE 2,2023-072C,2026-05-19T04:42:44.580384,15.45275298,.0006412,97.5268,347.1561,101.7147,258.4821,0,U,56745,999,16576,.36333E-3,.17226E-3,0
2023-072G,2023-072G,2026-05-19T04:48:00.522720,15.48829763,.0005614,97.4924,345.9346,93.4037,266.7856,0,U,56749,999,16597,.37889E-3,.2032E-3,0
GEISAT PRECURSOR,2023-084C,2026-05-19T04:46:59.913120,15.34212337,.0007225,97.6190,279.2148,91.8286,268.3783,0,U,56934,999,16308,.15637E-3,.5097E-4,0
BLACKJACK ACES-3,2023-084U,2026-05-19T02:34:51.081024,15.18268644,.0004061,97.6175,274.0888,104.0564,256.1121,0,U,56950,999,16275,.19401E-3,.3905E-4,0
BLACKJACK ACES-2,2023-084Z,2026-05-19T02:44:13.138944,15.18337759,.0002645,97.6173,274.1804,92.2831,267.8705,0,U,56955,999,16276,.18192E-3,.3665E-4,0
BLACKJACK ACES-1,2023-084AA,2026-05-19T02:26:46.506624,15.18189817,.0001518,97.6164,273.9456,95.4120,264.7287,0,U,56956,999,11248,.22052E-3,.4438E-4,0
ION SCV-011,2023-084AB,2026-05-19T01:39:11.848032,15.28531292,.0008276,98.1379,323.6579,132.7198,227.4737,0,U,56957,999,16136,.13487E-3,.3659E-4,0
GHOST-3,2023-084AC,2026-05-19T03:03:41.490720,15.46854158,.0006767,97.6188,286.1706,49.3395,310.8441,0,U,56958,999,16352,.23746E-3,.11844E-3,0
TOMORROW-R2,2023-084AG,2026-05-19T04:03:44.940096,15.90093667,.0002322,97.5941,299.6164,271.8528,88.2479,0,U,56962,999,16442,.49241E-3,.146436E-2,.10014E-4
AFR-1,2023-084AJ,2026-05-19T03:56:20.310144,15.28278251,.0012019,97.6237,275.1699,83.2851,276.9755,0,U,56964,999,16279,.11198E-3,.3011E-4,0
METEOR-M2 3,2023-091A,2026-05-19T05:17:43.449792,14.24044070,.0002837,98.6098,194.7885,247.4221,112.6658,0,U,57166,999,15039,.17947E-4,-.2E-7,0
UMKA 1 (RS40S),2023-091G,2026-05-19T04:56:29.025600,15.20449323,.0012011,97.5064,198.0196,214.2302,145.8160,0,U,57172,999,15960,.1539E-3,.3293E-4,0
2023-091H,2023-091H,2026-05-19T04:15:49.563072,15.27944704,.0009441,97.5060,202.1475,206.7733,153.3019,0,U,57173,999,15987,.25469E-3,.6877E-4,0
2023-091J,2023-091J,2026-05-19T04:05:24.247392,15.13708146,.0011826,97.5078,192.6819,244.7172,115.2834,0,U,57174,999,15924,.10929E-3,.1905E-4,0
CUBEBEL 2 (EU11S),2023-091K,2026-05-19T04:30:17.863200,15.28402685,.0009475,97.5062,202.1599,208.4933,151.5789,0,U,57175,999,15987,.2772E-3,.7599E-4,0
SITRO-AIS 5 (KATYS),2023-091L,2026-05-19T03:29:05.336160,15.28719545,.0011318,97.5071,202.7823,196.9616,163.1246,0,U,57176,999,15990,.28246E-3,.7825E-4,0
ZORKIY-2M 1,2023-091M,2026-05-19T04:38:32.009856,15.20484750,.0012673,97.5105,198.2570,211.2276,148.8208,0,U,57177,999,15959,.18774E-3,.4038E-4,0
CUBESX-HSE 3 (RS42S),2023-091N,2026-05-19T03:37:16.120128,15.30406215,.0011019,97.5102,204.3869,186.8529,173.2562,0,U,57178,999,15998,.29954E-3,.8746E-4,0
