BIRKELAND               
1 55015U 23001G   26139.16271406  .00006467  00000+0  16672-3 0  9997
2 55015  97.3354 207.0685 0006437 194.4838 165.6225 15.39520418187881
ION SCV-008             
1 55051U 23001AU  26139.23447444  .00004161  00000+0  15379-3 0  9994
2 55051  97.5697 235.0797 0016463 113.6192 246.6778 15.28181313186915
ION SCV-007             
1 55060U 23001BD  26139.14556581  .00000261  00000+0  43601-4 0  9994
2 55060  97.9021 202.7345 0013713  72.2882 287.9824 14.77523657181965
HUYGENS                 
1 55093U 23001CN  26139.16279541  .00006481  00000+0  16691-3 0  9998
2 55093  97.3260 206.3359 0009865 177.4656 182.6641 15.39519678187900
SHARJAHSAT-1            
1 55104U 23001CZ  26139.16215106  .00012908  00000+0  24928-3 0  9991
2 55104  97.3184 207.5491 0005787 190.4583 169.6548 15.47914811188001
HORUS 1                 
1 55690U 23025A   26139.18616829  .00003655  00000+0  15720-3 0  9995
2 55690  97.3466 214.3892 0000976 134.2846 225.8471 15.23260045179634
HORUS 2                 
1 55844U 23032A   26139.15628412  .00004047  00000+0  17279-3 0  9999
2 55844  97.3537 215.1369 0003029 134.2001 225.9486 15.23442050177067
GLOBAL-19               
1 55982U 23041B   26138.68831767  .00009047  00000+0  24026-3 0  9991
2 55982  42.0031  13.9916 0005213 146.4713 213.6457 15.38385850177387
BRO-9                   
1 56185U 23054H   26138.53261277  .00154493  00000+0  70887-3 0  9990
2 56185  97.2976  54.8061 0007986 120.5153 239.6905 15.83205814174371
ION SCV-010             
1 56192U 23054Q   26139.17780726  .00002881  00000+0  11501-3 0  9995
2 56192  97.3814  29.0494 0011477 313.3472  46.6809 15.25916165171775
TELEOS-2                
1 56310U 23057C   26139.16271130  .00002577  00000+0  16209-3 0  9995
2 56310   9.9890  55.4999 0000726 261.7331  98.2800 14.96420192168449
SNIPE 4                 
1 56744U 23072B   26139.13683559  .00014353  00000+0  34840-3 0  9998
2 56744  97.5272 344.2448 0006989  77.4569 282.7458 15.41113277165638
SNIPE 2                 
1 56745U 23072C   26139.19634931  .00017226  00000+0  36333-3 0  9996
2 56745  97.5268 347.1561 0006412 101.7147 258.4821 15.45275298165760
2023-072G               
1 56749U 23072G   26139.20000605  .00020320  00000+0  37889-3 0  9993
2 56749  97.4924 345.9346 0005614  93.4037 266.7856 15.48829763165975
GEISAT PRECURSOR        
1 56934U 23084C   26139.19930455  .00005097  00000+0  15637-3 0  9996
2 56934  97.6190 279.2148 0007225  91.8286 268.3783 15.34212337163080
BLACKJACK ACES-3        
1 56950U 23084U   26139.10753566  .00003905  00000+0  19401-3 0  9990
2 56950  97.6175 274.0888 0004061 104.0564 256.1121 15.18268644162754
BLACKJACK ACES-2        
1 56955U 23084Z   26139.11404096  .00003665  00000+0  18192-3 0  9996
2 56955  97.6173 274.1804 0002645  92.2831 267.8705 15.18337759162769
BLACKJACK ACES-1        
1 56956U 23084AA  26139.10192716  .00004438  00000+0  22052-3 0  9998
2 56956  97.6164 273.9456 0001518  95.4120 264.7287 15.18189817112489
ION SCV-011             
1 56957U 23084AB  26139.06888713  .00003659  00000+0  13487-3 0  9999
2 56957  98.1379 323.6579 0008276 132.7198 227.4737 15.28531292161367
GHOST-3                 
1 56958U 23084AC  26139.12756355  .00011844  00000+0  23746-3 0  9997
2 56958  97.6188 286.1706 0006767  49.3395 310.8441 15.46854158163528
TOMORROW-R2             
1 56962U 23084AG  26139.16927014  .00146436  10014-4  49241-3 0  9993
2 56962  97.5941 299.6164 0002322 271.8528  88.2479 15.90093667164425
AFR-1                   
1 56964U 23084AJ  26139.16412396  .00003011  00000+0  11198-3 0  9997
2 56964  97.6237 275.1699 0012019  83.2851 276.9755 15.28278251162792
METEOR-M2 3             
1 57166U 23091A   26139.22064178 -.00000002  00000+0  17947-4 0  9995
2 57166  98.6098 194.7885 0002837 247.4221 112.6658 14.24044070150394
UMKA 1 (RS40S)          
1 57172U 23091G   26139.20589150  .00003293  00000+0  15390-3 0  9995
2 57172  97.5064 198.0196 0012011 214.2302 145.8160 15.20449323159607
2023-091H               
1 57173U 23091H   26139.17765698  .00006877  00000+0  25469-3 0  9994
2 57173  97.5060 202.1475 0009441 206.7733 153.3019 15.27944704159874
2023-091J               
1 57174U 23091J   26139.17041953  .00001905  00000+0  10929-3 0  9998
2 57174  97.5078 192.6819 0011826 244.7172 115.2834 15.13708146159244
CUBEBEL 2 (EU11S)       
1 57175U 23091K   26139.18770675  .00007599  00000+0  27720-3 0  9992
2 57175  97.5062 202.1599 0009475 208.4933 151.5789 15.28402685159875
SITRO-AIS 5 (KATYS)     
1 57176U 23091L   26139.14520065  .00007825  00000+0  28246-3 0  9991
2 57176  97.5071 202.7823 0011318 196.9616 163.1246 15.28719545159907
ZORKIY-2M 1             
1 57177U 23091M   26139.19342604  .00004038  00000+0  18774-3 0  9996
2 57177  97.5105 198.2570 0012673 211.2276 148.8208 15.20484750159594
CUBESX-HSE 3 (RS42S)    
1 57178U 23091N   26139.15088102  .00008746  00000+0  29954-3 0  9995
2 57178  97.5102 204.3869 0011019 186.8529 173.2562 15.30406215159982
